STARLINK-6187           
1 56546U 23065AV  24155.30675757  .00001153  00000+0  10042-3 0  9998
2 56546  43.0025 124.6832 0001236 269.9202  90.1498 15.02533914 59547
STARLINK-6291           
1 56547U 23065AW  24155.29676347  .00000417  00000+0  45911-4 0  9999
2 56547  43.0031 124.6049 0001061 271.7178  88.3542 15.02547915 59549
STARLINK-6244           
1 56548U 23065AX  24155.30231557  .00000754  00000+0  70875-4 0  9993
2 56548  43.0036 124.6482 0001254 276.5943  83.4757 15.02538797 59545
STARLINK-6263           
1 56549U 23065AY  24155.28677422  .00001000  00000+0  89065-4 0  9992
2 56549  43.0031 124.5316 0001148 274.9157  85.1555 15.02538563 59543
STARLINK-6255           
1 56550U 23065AZ  24155.29565814  .00002707  00000+0  21538-3 0  9991
2 56550  43.0027 124.5987 0001482 267.6863  92.3810 15.02531422 59549
STARLINK-6199           
1 56551U 23065BA  24155.28233762  .00000579  00000+0  57931-4 0  9997
2 56551  43.0034 124.4969 0000680 257.8863 102.1903 15.02539900 59549
STARLINK-5802           
1 56552U 23065BB  24155.28900151  .00004968  00000+0  38249-3 0  9997
2 56552  43.0023 124.5483 0001298 266.2762  93.7932 15.02544906 59547
STARLINK-6074           
1 56553U 23065BC  24155.27900753  .00001355  00000+0  11538-3 0  9994
2 56553  43.0041 124.4732 0001247 267.0904  92.9796 15.02533703 59547
STARLINK-6295           
1 56554U 23065BD  24155.61583394  .00001438  00000+0  12148-3 0  9991
2 56554  43.0042 122.7008 0001232 266.3187  93.7515 15.02538347 58811
STARLINK-6252           
1 56555U 23065BE  24155.60473688  .00002345  00000+0  18863-3 0  9993
2 56555  43.0037 122.6163 0001212 267.7848  92.2855 15.02535358 59590
STARLINK-5302           
1 56556U 23065BF  24155.60806447  .00001689  00000+0  14003-3 0  9999
2 56556  43.0036 122.6427 0001290 268.1725  91.8970 15.02539170 59597
STARLINK-6265           
1 56557U 23065BG  24155.60141184  .00003026  00000+0  23891-3 0  9992
2 56557  43.0020 122.5906 0001608 271.5372  88.5286 15.02551742 59593
STARLINK-6286           
1 56558U 23065BH  24155.59918391  .00001473  00000+0  12405-3 0  9996
2 56558  43.0040 122.5725 0001188 273.0734  86.9972 15.02542181 59598
BEIDOU-3 G4             
1 56564U 23066A   24155.58694270 -.00000107  00000+0  00000+0 0  9998
2 56564   2.1560 288.2125 0005300 198.1633 137.4966  1.00270470  3931
STARLINK-30122          
1 56688U 23067A   24155.45305219 -.00000601  00000+0 -29407-4 0  9991
2 56688  43.0015 175.5887 0001176 276.5308  83.5400 15.02527851 58813
STARLINK-30129          
1 56689U 23067B   24155.77542990 -.00005237  00000+0 -37261-3 0  9992
2 56689  43.0020 173.7140 0001442 272.8648  87.2030 15.02562258 57947
STARLINK-30124          
1 56690U 23067C   24155.50620254  .00001946  00000+0  15906-3 0  9998
2 56690  43.0022 175.1446 0001334 272.9685  87.1005 15.02539192 58750
STARLINK-30087          
1 56691U 23067D   24155.64719528  .00031269  00000+0  75864-3 0  9997
2 56691  42.9975 131.1130 0033200 128.2030 232.1824 15.39892651 58430
STARLINK-30036          
1 56692U 23067E   24155.49955973  .00000180  00000+0  28406-4 0  9996
2 56692  43.0023 175.1129 0001266 274.6468  85.4230 15.02527906 57900
STARLINK-30067          
1 56693U 23067F   24155.55936384  .00000395  00000+0  44308-4 0  9996
2 56693  43.0024 174.7001 0001266 273.4337  86.6360 15.02537040 58760
STARLINK-30126          
1 56694U 23067G   24155.42975364  .00002129  00000+0  17261-3 0  9998
2 56694  43.0024 175.4472 0001358 273.7343  86.3344 15.02544714 58746
STARLINK-30121          
1 56695U 23067H   24155.42307829  .00000741  00000+0  69904-4 0  9994
2 56695  43.0024 175.3755 0001257 277.5563  82.5137 15.02534869 58742
STARLINK-30130          
1 56697U 23067K   24155.46292034  .00000185  00000+0  28750-4 0  9997
2 56697  43.0023 174.8319 0001305 278.6918  81.3776 15.02536047 58491
STARLINK-30068          
1 56698U 23067L   24155.40336068  .00000216  00000+0  31052-4 0  9992
2 56698  43.0028 162.2560 0001410 273.3865  86.6816 15.02535502 58630
STARLINK-30127          
1 56699U 23067M   24155.41974833  .00000950  00000+0  85414-4 0  9998
2 56699  43.0023 175.3727 0001438 275.4818  84.5860 15.02536218 58740
STARLINK-30053          
1 56700U 23067N   24155.41642193  .00003949  00000+0  30728-3 0  9990
2 56700  43.0013 175.3480 0001741 277.4214  82.6430 15.02530726 58747
STARLINK-30125          
1 56701U 23067P   24155.41308790  .00000477  00000+0  50410-4 0  9997
2 56701  43.0025 175.3228 0001330 274.1455  85.9235 15.02538923 58742
STARLINK-30117          
1 56702U 23067Q   24155.44971119  .00000104  00000+0  22740-4 0  9994
2 56702  43.0018 175.5308 0001221 274.9696  85.1007 15.02534923 58745
STARLINK-30132          
1 56703U 23067R   24155.40976750 -.00000820  00000+0 -45670-4 0  9991
2 56703  43.0005 175.2905 0001339 277.1847  82.8843 15.02528968 58749
STARLINK-30066          
1 56704U 23067S   24155.45625751  .00000176  00000+0  28119-4 0  9990
2 56704  43.0028 174.7619 0001130 274.5510  85.5203 15.02537238 57905
STARLINK-30080          
1 56705U 23067T   24155.73242715  .00001543  00000+0  12926-3 0  9994
2 56705  43.0028 160.4908 0001337 279.7598  80.3093 15.02538685 58099
STARLINK-30079          
1 56706U 23067U   24155.73549302  .00000526  00000+0  54001-4 0  9998
2 56706  43.0029 173.4395 0001435 289.5922  70.4766 15.02537649 57943
STARLINK-30070          
1 56707U 23067V   24155.47290925  .00000519  00000+0  53466-4 0  9990
2 56707  43.0027 174.9091 0001456 274.6108  85.4568 15.02536630 58750
STARLINK-30071          
1 56708U 23067W   24155.45959951  .00000255  00000+0  33936-4 0  9997
2 56708  43.0018 174.8086 0001130 267.2414  92.8299 15.02527933 57906
STARLINK-30085          
1 56709U 23067X   24155.46624463  .00001516  00000+0  12722-3 0  9996
2 56709  43.0017 174.8570 0001176 274.8262  85.2446 15.02542474 57906
ONEWEB-0561             
1 56710U 23068A   24155.26608399  .00000061  00000+0  11720-3 0  9998
2 56710  87.9236  62.4858 0001816 101.4201 258.7136 13.20772130 51301
ONEWEB-0668             
1 56711U 23068B   24155.52239648  .00000255  00000+0  63403-3 0  9995
2 56711  87.9108  16.8247 0001711  62.6597 297.4708 13.16593783 54628
ONEWEB-0676             
1 56712U 23068C   24155.35047000  .00000063  00000+0  13141-3 0  9997
2 56712  87.9115  16.8635 0001752 103.2649 256.8678 13.16594596 53822
ONEWEB-0677             
1 56713U 23068D   24155.50519808  .00010257  00000+0  20384-1 0  9996
2 56713  88.0577  62.4199 0001367  72.9254 287.2037 13.34793154 52327
ONEWEB-0678             
1 56714U 23068E   24155.39537168  .00000128  00000+0  30522-3 0  9996
2 56714  87.9058  47.1793 0002137  85.8949 274.2425 13.15546749 51499
ONEWEB-0679             
1 56715U 23068F   24155.31973776  .00000050  00000+0  97204-4 0  9993
2 56715  87.9113  16.8733 0001095  73.8414 286.2837 13.16593762 53844
ONEWEB-0680             
1 56716U 23068G   24155.37996344  .00000143  00000+0  31360-3 0  9999
2 56716  87.9303  32.0817 0001784  54.9610 305.1691 13.21826749 52839
ONEWEB-0681             
1 56717U 23068H   24155.39028738  .00000091  00000+0  18893-3 0  9993
2 56717  87.9303  32.0598 0001643 121.5595 238.5700 13.21823496 52828
ONEWEB-0682             
1 56718U 23068J   24155.42150601 -.00000063  00000+0 -20109-3 0  9997
2 56718  87.9052  47.2165 0001548  62.6142 297.5146 13.15549627 51669
ONEWEB-0683             
1 56719U 23068K   24155.44290881  .00000091  00000+0  20769-3 0  9996
2 56719  87.9053  47.1848 0001694  70.5096 289.6217 13.15546826 51632
ONEWEB-0684             
1 56720U 23068L   24155.45083810  .00000175  00000+0  43061-3 0  9994
2 56720  87.9053  47.2597 0003409  81.9078 278.2439 13.15546995 51466
ONEWEB-0686             
1 56721U 23068M   24155.30943600  .00000160  00000+0  38460-3 0  9992
2 56721  87.9113  16.9120 0001957  80.2501 279.8851 13.16592984 53836
ONEWEB-0694             
1 56722U 23068N   24155.34506504  .00000022  00000+0  23348-4 0  9992
2 56722  87.9109  16.8243 0001548  70.5322 289.5976 13.16592093 53899
ONEWEB-0696             
1 56723U 23068P   24155.40805719  .00000020  00000+0  19578-4 0  9998
2 56723  87.9054  47.2421 0002042  87.7384 272.3980 13.15548399 51570
ONEWEB-0703             
1 56724U 23068Q   24155.41756006 -.00000065  00000+0 -20614-3 0  9997
2 56724  87.9054  47.2611 0002663 106.9126 253.2296 13.15547140 51468
ONEWEB-0721             
1 56725U 23068R   24155.50569900  .00002443  00000+0  28269-3 0  9997
2 56725  86.6763 341.8080 0009255 331.9091  28.1632 14.85088849 56484
IRIDIUM 181             
1 56726U 23068S   24155.52108333  .00000588  00000+0  16797-3 0  9990
2 56726  86.8642 357.4439 0002152  93.5513 266.5934 14.43588703 55168
IRIDIUM 177             
1 56727U 23068T   24155.50209755  .00002240  00000+0  29122-3 0  9992
2 56727  86.1958 321.8611 0002438  96.1202 264.0296 14.80234740 56356
IRIDIUM 174             
1 56728U 23068U   24155.49667059  .00002241  00000+0  29140-3 0  9997
2 56728  86.1964 321.9663 0001972  90.3481 269.7966 14.80233393 56358
IRIDIUM 178             
1 56729U 23068V   24155.49132190  .00000776  00000+0  98704-4 0  9995
2 56729  86.5772 338.7851 0002025  81.4188 278.7263 14.80210173 56351
IRIDIUM 179             
1 56730U 23068W   24155.48562745  .00000717  00000+0  90927-4 0  9993
2 56730  86.6770 342.7476 0002022  89.3012 270.8441 14.80203783 56350
2023-069A               
1 56731U 23069A   24155.81337289  .00014821  00000+0  36573-3 0  9992
2 56731  41.0023 285.8048 0030478 356.2323   3.8267 15.39721298 58292
2023-069B               
1 56732U 23069B   24155.82586235  .00011904  00000+0  70886-3 0  9995
2 56732  41.0106 333.9997 0001417 278.7411  81.3242 15.11025398 57752
2023-069C               
1 56733U 23069C   24155.78465887  .00023383  00000+0  50958-3 0  9992
2 56733  41.0049 280.2550 0030823  11.9641 348.1911 15.43195168 58355
NEXTSAT-2               
1 56743U 23072A   24155.76287228  .00006546  00000+0  38400-3 0  9996
2 56743  97.5420 341.7823 0009305  95.9831 264.2460 15.12057412 56614
